NORAD_CAT_ID,OBJECT_NAME,OBJECT_TYPE,EPOCH,MEAN_MOTION,ECCENTRICITY,INCLINATION,RA_OF_ASC_NODE,ARG_OF_PERICENTER,MEAN_ANOMALY,BSTAR,MEAN_MOTION_DOT,MEAN_MOTION_DDOT,TLE_LINE0,TLE_LINE1,TLE_LINE2,SEMIMAJOR_AXIS,PERIOD,APOGEE,PERIGEE,DECAYED
49135.0,STARLINK-3073,PAYLOAD,2024-03-31 03:57:25,14.98411883,0.0002958,70.0004,240.8765,255.3602,104.7229,-0.0014905,-0.0001787,0.0,0 STARLINK-3073,1 49135U 21082F   24091.16488268 -.00017870  00000-0 -14905-2 0  9990,2 49135  70.0004 240.8765 0002958 255.3602 104.7229 14.98411883140843,6949.94,96.102,573.86,569.749,0.0
49135.0,STARLINK-3073,PAYLOAD,2024-03-31 13:34:15,14.98331232,0.0003107,70.0004,239.8668,272.2821,87.7982,-3.1969e-05,-4.74e-06,0.0,0 STARLINK-3073,1 49135U 21082F   24091.56545864 -.00000474  00000-0 -31969-4 0  9993,2 49135  70.0004 239.8668 0003107 272.2821  87.7982 14.98331232140903,6950.189,96.107,574.214,569.895,0.0
49135.0,STARLINK-3073,PAYLOAD,2024-03-31 19:58:47,14.98333592,0.0003135,70.0006,239.1937,272.1941,87.8859,-3.0816e-06,-1.3e-06,0.0,0 STARLINK-3073,1 49135U 21082F   24091.83249601 -.00000130  00000-0 -30816-5 0  9993,2 49135  70.0006 239.1937 0003135 272.1941  87.8859 14.98333592140949,6950.182,96.107,574.226,569.868,0.0
49135.0,STARLINK-3073,PAYLOAD,2024-04-01 13:36:16,14.98324952,0.000313,70.0007,237.3422,272.5061,87.5739,3.6127e-05,3.38e-06,0.0,0 STARLINK-3073,1 49135U 21082F   24092.56686105  .00000338  00000-0  36127-4 0  9996,2 49135  70.0007 237.3422 0003130 272.5061  87.5739 14.98324952141058,6950.209,96.107,574.249,569.898,0.0
49135.0,STARLINK-3073,PAYLOAD,2024-04-01 20:00:48,14.98331358,0.0003088,70.0009,236.669,272.5733,87.5072,9.8842e-05,1.087e-05,0.0,0 STARLINK-3073,1 49135U 21082F   24092.83389572  .00001087  00000-0  98842-4 0  9998,2 49135  70.0009 236.6690 0003088 272.5733  87.5072 14.98331358141099,6950.189,96.107,574.2,569.907,0.0
49135.0,STARLINK-3073,PAYLOAD,2024-04-02 15:14:25,14.98333756,0.000305,70.0011,234.6496,270.6411,89.4398,5.1971e-05,5.27e-06,0.0,0 STARLINK-3073,1 49135U 21082F   24093.63501542  .00000527  00000-0  51971-4 0  9990,2 49135  70.0011 234.6496 0003050 270.6411  89.4398 14.98333756141215,6950.181,96.107,574.166,569.926,0.0
49135.0,STARLINK-3073,PAYLOAD,2024-04-02 18:26:41,14.98331984,0.0003034,70.0011,234.3132,269.3233,90.7579,4.8638e-05,4.87e-06,0.0,0 STARLINK-3073,1 49135U 21082F   24093.76853650  .00000487  00000-0  48638-4 0  9995,2 49135  70.0011 234.3132 0003034 269.3233  90.7579 14.98331984141237,6950.187,96.107,574.16,569.943,0.0
49135.0,STARLINK-3073,PAYLOAD,2024-04-03 02:27:21,14.98346124,0.0003057,70.0014,233.4714,270.7399,89.341,-0.00020794,-2.574e-05,0.0,0 STARLINK-3073,1 49135U 21082F   24094.10233218 -.00002574  00000-0 -20794-3 0  9999,2 49135  70.0014 233.4714 0003057 270.7399  89.3410 14.98346124141285,6950.143,96.106,574.133,569.883,0.0
49135.0,STARLINK-3073,PAYLOAD,2024-04-03 12:04:10,14.98327351,0.0003017,70.001,232.4614,268.6147,91.4667,9.3979e-05,1.028e-05,0.0,0 STARLINK-3073,1 49135U 21082F   24094.50289751  .00001028  00000-0  93979-4 0  9993,2 49135  70.0010 232.4614 0003017 268.6147  91.4667 14.98327351141348,6950.201,96.107,574.163,569.969,0.0
49135.0,STARLINK-3073,PAYLOAD,2024-04-03 15:16:26,14.98333539,0.0003028,70.0011,232.1249,267.3568,92.7244,4.5805e-05,4.54e-06,0.0,0 STARLINK-3073,1 49135U 21082F   24094.63641433  .00000454  00000-0  45805-4 0  9993,2 49135  70.0011 232.1249 0003028 267.3568  92.7244 14.98333539141367,6950.182,96.107,574.151,569.942,0.0
49135.0,STARLINK-3073,PAYLOAD,2024-04-03 18:28:42,14.98331888,0.0003063,70.0011,231.7883,266.9906,93.0903,2.3124e-05,1.83e-06,0.0,0 STARLINK-3073,1 49135U 21082F   24094.76993566  .00000183  00000-0  23124-4 0  9993,2 49135  70.0011 231.7883 0003063 266.9906  93.0903 14.98331888141389,6950.187,96.107,574.181,569.923,0.0
49135.0,STARLINK-3073,PAYLOAD,2024-04-04 13:42:19,14.98328261,0.0003193,70.0007,229.7683,268.6712,91.4081,2.6373e-06,-6.2e-07,0.0,0 STARLINK-3073,1 49135U 21082F   24095.57105703 -.00000062  00000-0  26373-5 0  9998,2 49135  70.0007 229.7683 0003193 268.6712  91.4081 14.98328261141501,6950.198,96.107,574.282,569.844,0.0
49135.0,STARLINK-3073,PAYLOAD,2024-04-04 15:18:27,14.98330311,0.0003204,70.0007,229.5998,268.142,91.9372,4.0975e-05,3.96e-06,0.0,0 STARLINK-3073,1 49135U 21082F   24095.63781458  .00000396  00000-0  40975-4 0  9994,2 49135  70.0007 229.5998 0003204 268.1420  91.9372 14.98330311141510,6950.192,96.107,574.284,569.83,0.0
49135.0,STARLINK-3073,PAYLOAD,2024-04-04 18:30:43,14.98335081,0.0003272,70.0006,229.2636,270.3037,89.7747,1.3806e-05,7.2e-07,0.0,0 STARLINK-3073,1 49135U 21082F   24095.77133206  .00000072  00000-0  13806-4 0  9995,2 49135  70.0006 229.2636 0003272 270.3037  89.7747 14.98335081141531,6950.177,96.107,574.316,569.768,0.0
49135.0,STARLINK-3073,PAYLOAD,2024-04-05 02:31:23,14.9833431,0.0003188,70.0008,228.4206,268.6748,91.4046,1.6756e-05,1.07e-06,0.0,0 STARLINK-3073,1 49135U 21082F   24096.10513140  .00000107  00000-0  16756-4 0  9998,2 49135  70.0008 228.4206 0003188 268.6748  91.4046 14.98334310141583,6950.18,96.107,574.26,569.829,0.0
49135.0,STARLINK-3073,PAYLOAD,2024-04-05 15:20:27,14.98336476,0.0003212,70.0005,227.075,267.6604,92.4188,7.3785e-05,7.88e-06,0.0,0 STARLINK-3073,1 49135U 21082F   24096.63920698  .00000788  00000-0  73785-4 0  9996,2 49135  70.0005 227.0750 0003212 267.6604  92.4188 14.98336476141669,6950.173,96.107,574.27,569.805,0.0
49135.0,STARLINK-3073,PAYLOAD,2024-04-05 18:32:43,14.98339027,0.0003201,70.0007,226.7394,269.2977,90.7815,7.3253e-05,7.81e-06,0.0,0 STARLINK-3073,1 49135U 21082F   24096.77272483  .00000781  00000-0  73253-4 0  9996,2 49135  70.0007 226.7394 0003201 269.2977  90.7815 14.98339027141685,6950.165,96.106,574.255,569.805,0.0
49135.0,STARLINK-3073,PAYLOAD,2024-04-06 08:57:56,14.98325391,0.0003137,70.0011,225.2234,269.9157,90.1643,-2.2955e-05,-3.67e-06,0.0,0 STARLINK-3073,1 49135U 21082F   24097.37357510 -.00000367  00000-0 -22955-4 0  9993,2 49135  70.0011 225.2234 0003137 269.9157  90.1643 14.98325391141774,6950.207,96.107,574.252,569.892,0.0
49135.0,STARLINK-3073,PAYLOAD,2024-04-06 15:22:28,14.98327367,0.0002871,70.0015,224.5499,266.0114,94.0717,2.3783e-05,1.91e-06,0.0,0 STARLINK-3073,1 49135U 21082F   24097.64061308  .00000191  00000-0  23783-4 0  9993,2 49135  70.0015 224.5499 0002871 266.0114  94.0717 14.98327367141813,6950.201,96.107,574.061,570.071,0.0
49135.0,STARLINK-3073,PAYLOAD,2024-04-07 08:59:57,14.98327893,0.0003032,70.0022,222.6989,270.7441,89.3371,-2.7824e-05,-4.25e-06,0.0,0 STARLINK-3073,1 49135U 21082F   24098.37497449 -.00000425  00000-0 -27824-4 0  9995,2 49135  70.0022 222.6989 0003032 270.7441  89.3371 14.98327893141928,6950.199,96.107,574.172,569.957,0.0
49135.0,STARLINK-3073,PAYLOAD,2024-04-08 10:38:06,14.98329496,0.0003173,70.0014,220.0063,268.6664,91.4131,4.9539e-05,4.98e-06,0.0,0 STARLINK-3073,1 49135U 21082F   24099.44313185  .00000498  00000-0  49539-4 0  9993,2 49135  70.0014 220.0063 0003173 268.6664  91.4131 14.98329496142080,6950.194,96.107,574.265,569.854,0.0
49135.0,STARLINK-3073,PAYLOAD,2024-04-09 01:03:18,14.98334258,0.0002993,70.0015,218.4906,272.2855,87.7962,0.00012215,1.365e-05,0.0,0 STARLINK-3073,1 49135U 21082F   24100.04396630  .00001365  00000-0  12215-3 0  9992,2 49135  70.0015 218.4906 0002993 272.2855  87.7962 14.98334258142172,6950.18,96.107,574.125,569.965,0.0
49135.0,STARLINK-3073,PAYLOAD,2024-04-09 10:40:07,14.98330638,0.0002984,70.0012,217.4819,270.6893,89.3924,5.8805e-05,6.09e-06,0.0,0 STARLINK-3073,1 49135U 21082F   24100.44452963  .00000609  00000-0  58805-4 0  9994,2 49135  70.0012 217.4819 0002984 270.6893  89.3924 14.98330638142236,6950.191,96.107,574.13,569.982,0.0
49135.0,STARLINK-3073,PAYLOAD,2024-04-09 13:52:23,14.98331339,0.0002981,70.0011,217.1451,271.0352,89.0466,6.3333e-05,6.63e-06,0.0,0 STARLINK-3073,1 49135U 21082F   24100.57804905  .00000663  00000-0  63333-4 0  9997,2 49135  70.0011 217.1451 0002981 271.0352  89.0466 14.98331339142255,6950.189,96.107,574.126,569.982,0.0
49135.0,STARLINK-3073,PAYLOAD,2024-04-10 13:54:24,14.98331171,0.0003041,70.0013,214.6209,270.9677,89.1134,-5.5841e-05,-7.59e-06,0.0,0 STARLINK-3073,1 49135U 21082F   24101.57945167 -.00000759  00000-0 -55841-4 0  9997,2 49135  70.0013 214.6209 0003041 270.9677  89.1134 14.98331171142400,6950.189,96.107,574.168,569.941,0.0
49135.0,STARLINK-3073,PAYLOAD,2024-04-10 17:06:40,14.98330219,0.0003087,70.0012,214.2842,270.9666,89.1139,-6.7653e-05,-9e-06,0.0,0 STARLINK-3073,1 49135U 21082F   24101.71297249 -.00000900  00000-0 -67653-4 0  9996,2 49135  70.0012 214.2842 0003087 270.9666  89.1139 14.98330219142425,6950.192,96.107,574.203,569.912,0.0
49135.0,STARLINK-3073,PAYLOAD,2024-04-11 13:56:25,14.98333405,0.0003147,70.0006,212.0951,269.4659,90.614,4.4326e-05,4.36e-06,0.0,0 STARLINK-3073,1 49135U 21082F   24102.58084688  .00000436  00000-0  44326-4 0  9997,2 49135  70.0006 212.0951 0003147 269.4659  90.6140 14.98333405142550,6950.182,96.107,574.235,569.86,0.0
49135.0,STARLINK-3073,PAYLOAD,2024-04-11 17:08:41,14.98333879,0.0003198,70.001,211.7586,269.7019,90.3774,4.7876e-05,4.78e-06,0.0,0 STARLINK-3073,1 49135U 21082F   24102.71436637  .00000478  00000-0  47876-4 0  9996,2 49135  70.0010 211.7586 0003198 269.7019  90.3774 14.98333879142571,6950.181,96.107,574.269,569.823,0.0
49135.0,STARLINK-3073,PAYLOAD,2024-04-12 12:22:18,14.98326654,0.0003222,70.0011,209.7384,270.2635,89.8155,2.1443e-05,1.63e-06,0.0,0 STARLINK-3073,1 49135U 21082F   24103.51549186  .00000163  00000-0  21443-4 0  9992,2 49135  70.0011 209.7384 0003222 270.2635  89.8155 14.98326654142696,6950.203,96.107,574.308,569.829,0.0
49135.0,STARLINK-3073,PAYLOAD,2024-04-12 13:58:26,14.98327346,0.0003213,70.0011,209.57,270.2478,89.8313,2.8242e-05,2.44e-06,0.0,0 STARLINK-3073,1 49135U 21082F   24103.58225134  .00000244  00000-0  28242-4 0  9997,2 49135  70.0011 209.5700 0003213 270.2478  89.8313 14.98327346142708,6950.201,96.107,574.299,569.833,0.0
